{"generatedAt":"2026-04-29T08:26:58.420709Z","satellites":[{"name":"KUIPER-00070","tle1":"1 64817C 25151B   26119.22407407  .00007764  00000+0  10156-2 0  1197","tle2":"2 64817  51.8985  82.0935 0000786  77.7864 233.5483 14.79954165    11"},{"name":"KUIPER-00071","tle1":"1 64818C 25151C   26119.15664352  .00004862  00000+0  63624-3 0  1199","tle2":"2 64818  51.9001  79.9209 0000751  76.2413 221.2021 14.79940135    11"},{"name":"KUIPER-00072","tle1":"1 64819C 25151D   26119.17686343 -.00007400  00000+0 -96989-3 0  1199","tle2":"2 64819  51.8977  59.7994 0000996  84.8588  25.8996 14.79887608    13"},{"name":"KUIPER-00073","tle1":"1 64820C 25151E   26119.19248843  .00006786  00000+0  88852-3 0  1196","tle2":"2 64820  51.8993  79.7514 0000932  77.9127 230.5909 14.79914706    14"},{"name":"KUIPER-00074","tle1":"1 64821C 25151F   26119.26046296  .00068639  00000+0  43679-3 0  1196","tle2":"2 64821  51.8965  37.4654 0005619 161.3214  58.7163 15.75631558    12"},{"name":"KUIPER-00075","tle1":"1 64822C 25151G   26119.32369213  .00009261  00000+0  20480-3 0  1192","tle2":"2 64822  51.8696 335.0793 0004687 102.2740 296.8133 15.43185183    12"},{"name":"KUIPER-00076","tle1":"1 64823C 25151H   26119.23548611  .00003244  00000+0  42487-3 0  1190","tle2":"2 64823  51.9004  69.5774 0001309  75.8618  43.9390 14.79899112    10"},{"name":"KUIPER-00077","tle1":"1 64824C 25151J   26119.19629630  .00008312  00000+0  10868-2 0  1195","tle2":"2 64824  51.9006  74.7641 0000544  90.1806 209.8858 14.79973677    14"},{"name":"KUIPER-00078","tle1":"1 64825C 25151K   26119.16436343  .00006467  00000+0  84619-3 0  1195","tle2":"2 64825  51.8999  72.3895 0000805  77.0421 218.4705 14.79939513    15"},{"name":"KUIPER-00079","tle1":"1 64826C 25151L   26119.22547454  .00009108  00000+0  11916-2 0  1193","tle2":"2 64826  51.8985  77.0888 0000851  75.6442  34.4469 14.79944517    16"},{"name":"KUIPER-00080","tle1":"1 64827C 25151M   26119.16123843 -.00019042  00000+0 -24938-2 0  1197","tle2":"2 64827  51.8988  77.3808 0000726  94.0759 213.5709 14.79930620    19"},{"name":"KUIPER-00082","tle1":"1 64828C 25151N   26119.21054398  .00008577  00000+0  11222-2 0  1193","tle2":"2 64828  51.9010  64.7032 0000823  87.5762 231.0288 14.79945267    15"},{"name":"KUIPER-00083","tle1":"1 64829C 25151P   26119.16262732  .00007017  00000+0  91868-3 0  1194","tle2":"2 64829  51.9004  72.4023 0001067  75.5597  30.5505 14.79915353    16"},{"name":"KUIPER-00084","tle1":"1 64830C 25151Q   26119.12582176  .00002393  00000+0  31324-3 0  1192","tle2":"2 64830  51.8999  82.5496 0000693  97.3696 230.1248 14.79921337    13"},{"name":"KUIPER-00085","tle1":"1 64831C 25151R   26119.17582176  .00008739  00000+0  11434-2 0  1197","tle2":"2 64831  51.9028  64.8918 0000787  97.0940 216.3583 14.79942223    18"},{"name":"KUIPER-00086","tle1":"1 64832C 25151S   26119.27459491  .00008520  00000+0  11157-2 0  1192","tle2":"2 64832  51.9002  74.4161 0000949  78.6343  98.8531 14.79909164    13"},{"name":"KUIPER-00087","tle1":"1 64833C 25151T   26119.28443287  .00010644  00000+0  13936-2 0  1197","tle2":"2 64833  51.8997  56.8463 0000810  96.7214  32.5517 14.79912751    15"},{"name":"KUIPER-00089","tle1":"1 64834C 25151U   26119.31430556  .00010671  00000+0  13967-2 0  1191","tle2":"2 64834  51.9004  61.7287 0000830  93.2048 224.0471 14.79925415    12"},{"name":"KUIPER-00090","tle1":"1 64835C 25151V   26119.30254630  .00011135  00000+0  14575-2 0  1190","tle2":"2 64835  51.8986  54.3022 0000756  98.0803 113.3821 14.79922892    10"},{"name":"KUIPER-00091","tle1":"1 64836C 25151W   26119.32020833  .00004557  00000+0  59600-3 0  1198","tle2":"2 64836  51.9012  59.2135 0000897  82.9086 251.6181 14.79960231    16"},{"name":"KUIPER-00092","tle1":"1 64837C 25151X   26119.17234954  .00008674  00000+0  11355-2 0  1191","tle2":"2 64837  51.9004  67.3632 0000928  79.3569 229.8716 14.79922401    19"},{"name":"KUIPER-00093","tle1":"1 64838C 25151Y   26119.20532407  .00008852  00000+0  11624-2 0  1197","tle2":"2 64838  51.8995  69.6901 0000588  75.2788  66.9979 14.79792097    19"},{"name":"KUIPER-00094","tle1":"1 64839C 25151Z   26119.30217593  .00004009  00000+0  28020-3 0  1194","tle2":"2 64839  51.8900  29.7095 0007314 107.2903 124.9252 15.04770396    12"},{"name":"KUIPER-00081","tle1":"1 65132C 25171A   26119.14942130  .00004419  00000+0  57861-3 0  1197","tle2":"2 65132  51.8990 284.9414 0000579 100.4015 167.2841 14.79916604    12"},{"name":"KUIPER-00088","tle1":"1 65133C 25171B   26119.19803241  .00004074  00000+0  53357-3 0  1195","tle2":"2 65133  51.8989 302.2318 0000810  93.7874 173.7153 14.79903051    13"},{"name":"KUIPER-00095","tle1":"1 65134C 25171C   26119.27825232  .00006821  00000+0  89316-3 0  1195","tle2":"2 65134  51.8970 281.9369 0000562  94.7022 125.3633 14.79912570    15"},{"name":"KUIPER-00096","tle1":"1 65135C 25171D   26119.17193287  .00004008  00000+0  52455-3 0  1192","tle2":"2 65135  51.8984 294.8467 0000574 100.3055 164.8766 14.79937996    10"},{"name":"KUIPER-00097","tle1":"1 65136C 25171E   26119.16886574  .00004221  00000+0  55281-3 0  1197","tle2":"2 65136  51.9007 297.5000 0000629  98.0649 165.1481 14.79907602    13"},{"name":"KUIPER-00098","tle1":"1 65137C 25171F   26119.16538194  .00004176  00000+0  54660-3 0  1199","tle2":"2 65137  51.8998 299.8883 0000674 109.9129 149.0631 14.79932299    19"},{"name":"KUIPER-00099","tle1":"1 65138C 25171G   26119.21383102  .00003602  00000+0  47167-3 0  1190","tle2":"2 65138  51.9014 289.6667 0000714 105.1940 174.5831 14.79918438    15"},{"name":"KUIPER-00100","tle1":"1 65139C 25171H   26119.20531250  .00004752  00000+0  62229-3 0  1192","tle2":"2 65139  51.9005 287.1800 0000778  97.8289 302.2231 14.79906369    15"},{"name":"KUIPER-00102","tle1":"1 65140C 25171J   26119.23447917  .00005038  00000+0  65964-3 0  1190","tle2":"2 65140  51.8974 289.5612 0000634  95.5576 114.3922 14.79918535    10"},{"name":"KUIPER-00103","tle1":"1 65141C 25171K   26119.26238426  .00003274  00000+0  42853-3 0  1199","tle2":"2 65141  51.8984 306.9324 0000647 107.6763 171.5659 14.79932754    14"},{"name":"KUIPER-00104","tle1":"1 65142C 25171L   26119.20730324  .00004489  00000+0  58754-3 0  1194","tle2":"2 65142  51.9012 294.6535 0000602  90.7674 182.9727 14.79928095    14"},{"name":"KUIPER-00105","tle1":"1 65143C 25171M   26119.18714120  .00004210  00000+0  55124-3 0  1198","tle2":"2 65143  51.8998 302.3557 0000680 102.9058 286.4467 14.79912902    17"},{"name":"KUIPER-00106","tle1":"1 65144C 25171N   26119.15184028 -.00000631  00000+0 -53291-4 0  1193","tle2":"2 65144  51.8923 285.6239 0006873 269.0734   1.3918 14.97569422    12"},{"name":"KUIPER-00107","tle1":"1 65145C 25171P   26119.18512732  .00004856  00000+0  63596-3 0  1193","tle2":"2 65145  51.8996 284.8034 0000752  97.7360 180.3648 14.79903125    18"},{"name":"KUIPER-00108","tle1":"1 65146C 25171Q   26119.20464120  .00004758  00000+0  62294-3 0  1199","tle2":"2 65146  51.9014 297.2426 0000699  97.3752 176.5032 14.79921390    13"},{"name":"KUIPER-00109","tle1":"1 65147C 25171R   26119.17511574 -.00021447  00000+0 -28108-2 0  1193","tle2":"2 65147  51.9012 292.3143 0000712  94.6921 173.5899 14.79904058    18"},{"name":"KUIPER-00110","tle1":"1 65148C 25171S   26119.19480324  .00003711  00000+0  48582-3 0  1195","tle2":"2 65148  51.8992 304.8036 0000829  99.0125 165.5606 14.79922880    19"},{"name":"KUIPER-00111","tle1":"1 65149C 25171T   26119.28026620  .00004211  00000+0  55151-3 0  1197","tle2":"2 65149  51.8966 309.3233 0000678  96.9566 112.1376 14.79902815    15"},{"name":"KUIPER-00112","tle1":"1 65150C 25171U   26119.16435185 -.00000948  00000+0 -12398-3 0  1197","tle2":"2 65150  51.9010 292.4138 0000658 131.9412 258.9800 14.79982579    18"},{"name":"KUIPER-00114","tle1":"1 65151C 25171V   26119.29387732  .00003828  00000+0  50139-3 0  1199","tle2":"2 65151  51.8989 311.8298 0000671  93.4518 202.5295 14.79905665    14"},{"name":"KUIPER-00115","tle1":"1 65152C 25171W   26119.28657407  .00005310  00000+0  69505-3 0  1193","tle2":"2 65152  51.9001 304.3551 0000661 106.0861 107.6926 14.79926910    13"},{"name":"KUIPER-00116","tle1":"1 65153C 25171X   26119.31469907  .00004691  00000+0  61452-3 0  1198","tle2":"2 65153  51.8999 309.2674 0000716  99.6695 112.9655 14.79894559    13"},{"name":"KUIPER-00118","tle1":"1 65154C 25171Y   26119.21100694 -.00000320  00000+0 -41820-4 0  1198","tle2":"2 65154  51.8996 312.1793 0000926 119.5495 275.7432 14.80003636    10"},{"name":"KUIPER-00119","tle1":"1 65155C 25171Z   26119.20288194  .00004453  00000+0  59256-3 0  1190","tle2":"2 65155  51.8997 299.8197 0001293  53.6974 216.9697 14.79233107    15"},{"name":"KUIPER-00120","tle1":"1 65762C 25217A   26119.27649306  .00001961  00000+0  25666-3 0  1197","tle2":"2 65762  51.8980 189.3701 0000535  91.3867  37.4070 14.79935482    19"},{"name":"KUIPER-00132","tle1":"1 65763C 25217B   26119.26574074  .00012298  00000+0  28848-3 0  1196","tle2":"2 65763  51.8550 117.6268 0006121 133.9628 160.5220 15.41414162    12"},{"name":"KUIPER-00133","tle1":"1 65764C 25217C   26119.29457176 -.00000791  00000+0 -10356-3 0  1195","tle2":"2 65764  51.9026 189.3647 0000320 145.3286 259.8236 14.79924644    11"},{"name":"KUIPER-00139","tle1":"1 65765C 25217D   26119.21605324 -.00003962  00000+0 -29591-3 0  1192","tle2":"2 65765  51.8838 162.4113 0008286 113.3484 297.4440 15.02284724    16"},{"name":"KUIPER-00142","tle1":"1 65766C 25217E   26119.26122685  .00000131  00000+0  17161-4 0  1196","tle2":"2 65766  51.8980 171.9620 0000468  92.0725 214.7264 14.79920757    10"},{"name":"KUIPER-00145","tle1":"1 65767C 25217F   26119.15322917 -.00033676  00000+0 -44085-2 0  1190","tle2":"2 65767  51.8985 174.9564 0000481  88.0139  17.4895 14.79962993    11"},{"name":"KUIPER-00147","tle1":"1 65768C 25217G   26119.25842593 -.00003392  00000+0 -44388-3 0  1198","tle2":"2 65768  51.8976 176.9807 0000311   8.6742 132.1411 14.79946229    17"}]}